{"type": "FeatureCollection", "features": [ {"type": "Feature", "properties": {"norad_id": 66685, "name": "TRANSPORTER-15 V", "group": "last-30-days", "lat": 30.154056474379644, "lon": -109.85824346682294, "alt_km": 513.9132410773882, "timestamp": "2025-12-20T03:42:46.119517+00:00", "meta": {"OBJECT_NAME": "TRANSPORTER-15 V", "OBJECT_ID": "2025-276V", "EPOCH": "2025-12-19T14:23:40.254144", "MEAN_MOTION": 15.17380939, "ECCENTRICITY": 0.0003974, "INCLINATION": 97.4431, "RA_OF_ASC_NODE": 65.2408, "ARG_OF_PERICENTER": 278.7845, "MEAN_ANOMALY": 81.2938, "EPHEMERIS_TYPE": 0, "CLASSIFICATION_TYPE": "U", "NORAD_CAT_ID": 66685, "ELEMENT_SET_NO": 999, "REV_AT_EPOCH": 316, "BSTAR": 0.00049331, "MEAN_MOTION_DOT": 9.795e-05, "MEAN_MOTION_DDOT": 0}, "tle": {"line1": "1 66685U 25276V   25353.59977146  .00009795  00000+0  49331-3 0  9991", "line2": "2 66685  97.4431  65.2408 0003974 278.7845  81.2938 15.17380939  3167"}}, "geometry": {"type": "Point", "coordinates": [-109.85824346682294, 30.154056474379644]}}, {"type": "Feature", "properties": {"norad_id": 66686, "name": "TRANSPORTER-15 W", "group": "last-30-days", "lat": 45.52086798520643, "lon": -106.55878464021714, "alt_km": 513.0382873002518, "timestamp": "2025-12-20T03:42:46.119527+00:00", "meta": {"OBJECT_NAME": "TRANSPORTER-15 W", "OBJECT_ID": "2025-276W", "EPOCH": "2025-12-19T11:17:34.507392", "MEAN_MOTION": 15.16958969, "ECCENTRICITY": 0.0004583, "INCLINATION": 97.4454, "RA_OF_ASC_NODE": 65.1162, "ARG_OF_PERICENTER": 263.0125, "MEAN_ANOMALY": 97.0587, "EPHEMERIS_TYPE": 0, "CLASSIFICATION_TYPE": "U", "NORAD_CAT_ID": 66686, "ELEMENT_SET_NO": 999, "REV_AT_EPOCH": 314, "BSTAR": 0.00015018, "MEAN_MOTION_DOT": 2.897e-05, "MEAN_MOTION_DDOT": 0}, "tle": {"line1": "1 66686U 25276W   25353.47053828  .00002897  00000+0  15018-3 0  9992", "line2": "2 66686  97.4454  65.1162 0004583 263.0125  97.0587 15.16958969  3140"}}, "geometry": {"type": "Point", "coordinates": [-106.55878464021714, 45.52086798520643]}}, {"type": "Feature", "properties": {"norad_id": 66687, "name": "TRANSPORTER-15 X", "group": "last-30-days", "lat": 70.64223651021865, "lon": -92.4038375520258, "alt_km": 505.1053669104522, "timestamp": "2025-12-20T03:42:46.119538+00:00", "meta": {"OBJECT_NAME": "TRANSPORTER-15 X", "OBJECT_ID": "2025-276X", "EPOCH": "2025-12-19T03:29:15.187488", "MEAN_MOTION": 15.16623915, "ECCENTRICITY": 0.00084967, "INCLINATION": 97.4403, "RA_OF_ASC_NODE": 64.7687, "ARG_OF_PERICENTER": 65.7808, "MEAN_ANOMALY": 294.4312, "EPHEMERIS_TYPE": 0, "CLASSIFICATION_TYPE": "U", "NORAD_CAT_ID": 66687, "ELEMENT_SET_NO": 999, "REV_AT_EPOCH": 309, "BSTAR": 0.0002869943, "MEAN_MOTION_DOT": 5.549e-05, "MEAN_MOTION_DDOT": 0}, "tle": {"line1": "1 66687U 25276X   25353.14531467  .00005549  00000+0  28699-3 0  9993", "line2": "2 66687  97.4403  64.7687 0008496  65.7808 294.4312 15.16623915  3097"}}, "geometry": {"type": "Point", "coordinates": [-92.4038375520258, 70.64223651021865]}}, {"type": "Feature", "properties": {"norad_id": 66688, "name": "TRANSPORTER-15 Y", "group": "last-30-days", "lat": 41.30156169394206, "lon": -107.61826615043437, "alt_km": 512.9322005945487, "timestamp": "2025-12-20T03:42:46.119549+00:00", "meta": {"OBJECT_NAME": "TRANSPORTER-15 Y", "OBJECT_ID": "2025-276Y", "EPOCH": "2025-12-19T11:16:30.076320", "MEAN_MOTION": 15.17036621, "ECCENTRICITY": 0.0003635, "INCLINATION": 97.4445, "RA_OF_ASC_NODE": 65.1123, "ARG_OF_PERICENTER": 264.2799, "MEAN_ANOMALY": 95.8019, "EPHEMERIS_TYPE": 0, "CLASSIFICATION_TYPE": "U", "NORAD_CAT_ID": 66688, "ELEMENT_SET_NO": 999, "REV_AT_EPOCH": 314, "BSTAR": 0.00023695, "MEAN_MOTION_DOT": 4.621e-05, "MEAN_MOTION_DDOT": 0}, "tle": {"line1": "1 66688U 25276Y   25353.46979255  .00004621  00000+0  23695-3 0  9991", "line2": "2 66688  97.4445  65.1123 0003635 264.2799  95.8019 15.17036621  3145"}}, "geometry": {"type": "Point", "coordinates": [-107.61826615043437, 41.30156169394206]}}, {"type": "Feature", "properties": {"norad_id": 66689, "name": "TRANSPORTER-15 Z", "group": "last-30-days", "lat": 24.467671986409687, "lon": -110.80058601732894, "alt_km": 514.424186224368, "timestamp": "2025-12-20T03:42:46.119560+00:00", "meta": {"OBJECT_NAME": "TRANSPORTER-15 Z", "OBJECT_ID": "2025-276Z", "EPOCH": "2025-12-19T14:22:03.787680", "MEAN_MOTION": 15.17181025, "ECCENTRICITY": 0.0001369, "INCLINATION": 97.4426, "RA_OF_ASC_NODE": 65.243, "ARG_OF_PERICENTER": 288.6889, "MEAN_ANOMALY": 71.4196, "EPHEMERIS_TYPE": 0, "CLASSIFICATION_TYPE": "U", "NORAD_CAT_ID": 66689, "ELEMENT_SET_NO": 999, "REV_AT_EPOCH": 316, "BSTAR": 0.00010187, "MEAN_MOTION_DOT": 1.956e-05, "MEAN_MOTION_DDOT": 0}, "tle": {"line1": "1 66689U 25276Z   25353.59865495  .00001956  00000+0  10187-3 0  9996", "line2": "2 66689  97.4426  65.2430 0001369 288.6889  71.4196 15.17181025  3166"}}, "geometry": {"type": "Point", "coordinates": [-110.80058601732894, 24.467671986409687]}}, {"type": "Feature", "properties": {"norad_id": 66690, "name": "TRANSPORTER-15 AA", "group": "last-30-days", "lat": 41.45278093883367, "lon": -107.59625787190205, "alt_km": 512.9715850940547, "timestamp": "2025-12-20T03:42:46.119570+00:00", "meta": {"OBJECT_NAME": "TRANSPORTER-15 AA", "OBJECT_ID": "2025-276AA", "EPOCH": "2025-12-19T00:11:38.885280", "MEAN_MOTION": 15.17017224, "ECCENTRICITY": 0.00035531, "INCLINATION": 97.4408, "RA_OF_ASC_NODE": 64.6494, "ARG_OF_PERICENTER": 267.0809, "MEAN_ANOMALY": 93.0017, "EPHEMERIS_TYPE": 0, "CLASSIFICATION_TYPE": "U", "NORAD_CAT_ID": 66690, "ELEMENT_SET_NO": 999, "REV_AT_EPOCH": 307, "BSTAR": 0.0002351231, "MEAN_MOTION_DOT": 4.582e-05, "MEAN_MOTION_DDOT": 0}, "tle": {"line1": "1 66690U 25276AA  25353.00808895  .00004582  00000+0  23512-3 0  9999", "line2": "2 66690  97.4408  64.6494 0003553 267.0809  93.0017 15.17017224  3072"}}, "geometry": {"type": "Point", "coordinates": [-107.59625787190205, 41.45278093883367]}}, {"type": "Feature", "properties": {"norad_id": 66691, "name": "TRANSPORTER-15 AB", "group": "last-30-days", "lat": 32.831253815557304, "lon": -109.3760567689286, "alt_km": 513.37538822024, "timestamp": "2025-12-20T03:42:46.119580+00:00", "meta": {"OBJECT_NAME": "TRANSPORTER-15 AB", "OBJECT_ID": "2025-276AB", "EPOCH": "2025-12-19T14:24:18.484416", "MEAN_MOTION": 15.17236029, "ECCENTRICITY": 0.0003635, "INCLINATION": 97.4433, "RA_OF_ASC_NODE": 65.2403, "ARG_OF_PERICENTER": 264.9264, "MEAN_ANOMALY": 95.1554, "EPHEMERIS_TYPE": 0, "CLASSIFICATION_TYPE": "U", "NORAD_CAT_ID": 66691, "ELEMENT_SET_NO": 999, "REV_AT_EPOCH": 316, "BSTAR": 0.00034459, "MEAN_MOTION_DOT": 6.791e-05, "MEAN_MOTION_DDOT": 0}, "tle": {"line1": "1 66691U 25276AB  25353.60021394  .00006791  00000+0  34459-3 0  9993", "line2": "2 66691  97.4433  65.2403 0003635 264.9264  95.1554 15.17236029  3165"}}, "geometry": {"type": "Point", "coordinates": [-109.3760567689286, 32.831253815557304]}}, {"type": "Feature", "properties": {"norad_id": 66692, "name": "TRANSPORTER-15 AC", "group": "last-30-days", "lat": 17.05327148923424, "lon": -111.90619485968512, "alt_km": 515.1251327623504, "timestamp": "2025-12-20T03:42:46.119590+00:00", "meta": {"OBJECT_NAME": "TRANSPORTER-15 AC", "OBJECT_ID": "2025-276AC", "EPOCH": "2025-12-19T14:20:11.028768", "MEAN_MOTION": 15.17362366, "ECCENTRICITY": 0.0001801, "INCLINATION": 97.4431, "RA_OF_ASC_NODE": 65.2479, "ARG_OF_PERICENTER": 289.3043, "MEAN_ANOMALY": 70.7996, "EPHEMERIS_TYPE": 0, "CLASSIFICATION_TYPE": "U", "NORAD_CAT_ID": 66692, "ELEMENT_SET_NO": 999, "REV_AT_EPOCH": 316, "BSTAR": 0.00022003, "MEAN_MOTION_DOT": 4.326e-05, "MEAN_MOTION_DDOT": 0}, "tle": {"line1": "1 66692U 25276AC  25353.59734987  .00004326  00000+0  22003-3 0  9995", "line2": "2 66692  97.4431  65.2479 0001801 289.3043  70.7996 15.17362366  3169"}}, "geometry": {"type": "Point", "coordinates": [-111.90619485968512, 17.05327148923424]}}, {"type": "Feature", "properties": {"norad_id": 66693, "name": "TRANSPORTER-15 AD", "group": "last-30-days", "lat": 19.242837126441653, "lon": -111.60893437561714, "alt_km": 514.9891931211123, "timestamp": "2025-12-20T03:42:46.119613+00:00", "meta": {"OBJECT_NAME": "TRANSPORTER-15 AD", "OBJECT_ID": "2025-276AD", "EPOCH": "2025-12-19T14:20:50.696736", "MEAN_MOTION": 15.17522543, "ECCENTRICITY": 0.0003285, "INCLINATION": 97.4385, "RA_OF_ASC_NODE": 65.2301, "ARG_OF_PERICENTER": 291.1453, "MEAN_ANOMALY": 68.9429, "EPHEMERIS_TYPE": 0, "CLASSIFICATION_TYPE": "U", "NORAD_CAT_ID": 66693, "ELEMENT_SET_NO": 999, "REV_AT_EPOCH": 316, "BSTAR": 0.0004837, "MEAN_MOTION_DOT": 9.641e-05, "MEAN_MOTION_DDOT": 0}, "tle": {"line1": "1 66693U 25276AD  25353.59780899  .00009641  00000+0  48370-3 0  9999", "line2": "2 66693  97.4385  65.2301 0003285 291.1453  68.9429 15.17522543  3161"}}, "geometry": {"type": "Point", "coordinates": [-111.60893437561714, 19.242837126441653]}}, {"type": "Feature", "properties": {"norad_id": 66694, "name": "TRANSPORTER-15 AE", "group": "last-30-days", "lat": 9.209423941695905, "lon": -112.99068936117824, "alt_km": 515.37338994947, "timestamp": "2025-12-20T03:42:46.119625+00:00", "meta": {"OBJECT_NAME": "TRANSPORTER-15 AE", "OBJECT_ID": "2025-276AE", "EPOCH": "2025-12-19T20:00:01.999008", "MEAN_MOTION": 15.17547892, "ECCENTRICITY": 0.0001187, "INCLINATION": 97.4429, "RA_OF_ASC_NODE": 65.479, "ARG_OF_PERICENTER": 276.0778, "MEAN_ANOMALY": 300.1084, "EPHEMERIS_TYPE": 0, "CLASSIFICATION_TYPE": "U", "NORAD_CAT_ID": 66694, "ELEMENT_SET_NO": 999, "REV_AT_EPOCH": 130, "BSTAR": -0.0027687, "MEAN_MOTION_DOT": -0.00055173, "MEAN_MOTION_DDOT": 0}, "tle": {"line1": "1 66694U 25276AE  25353.83335647 -.00055173  00000+0 -27687-2 0  9994", "line2": "2 66694  97.4429  65.4790 0001187 276.0778 300.1084 15.17547892  1302"}}, "geometry": {"type": "Point", "coordinates": [-112.99068936117824, 9.209423941695905]}}]}